SENTINEL-5P             
1 42969U 17064A   23065.46468023  .00000257  00000+0  14268-3 0  9994
2 42969  98.7603   6.9163 0001009  79.6832 280.4458 14.19563232279493
SKYSAT-C11              
1 42987U 17068A   23065.77498180  .00029199  00000+0  73229-3 0  9997
2 42987  97.3100 188.5660 0002968 129.1721 230.9789 15.39986893298721
SKYSAT-C10              
1 42988U 17068B   23066.26311136  .00036829  00000+0  92177-3 0  9999
2 42988  97.3149 189.4711 0002834 110.7881 249.3669 15.40002065298821
SKYSAT-C9               
1 42989U 17068C   23066.17516390  .00033866  00000+0  84791-3 0  9990
2 42989  97.3079 188.3247 0000110  14.3005 345.8244 15.40011517299002
SKYSAT-C8               
1 42990U 17068D   23066.12526778  .00034174  00000+0  85477-3 0  9993
2 42990  97.3167 189.7659 0000700  73.6772 286.4551 15.40040795298828
SKYSAT-C7               
1 42991U 17068E   23066.28715427  .00036915  00000+0  92129-3 0  9999
2 42991  97.3167 190.0380 0003553 124.3804 235.7779 15.40086289298854
SKYSAT-C6               
1 42992U 17068F   23066.27821892  .00037628  00000+0  94014-3 0  9990
2 42992  97.3189 190.4828 0002659 140.0932 220.0510 15.40050164298867
CARTOSAT-2F             
1 43111U 18004A   23066.22445610  .00009804  00000+0  46720-3 0  9996
2 43111  97.4134 127.4672 0004299 207.2699 238.3139 15.19308287285444
NUSAT-4 (ADA)           
1 43195U 18015D   23066.23856660  .00053050  00000+0  12904-2 0  9990
2 43195  97.5620 218.2301 0013104 193.8817 290.3114 15.40701816283529
NUSAT-5 (MARYAM)        
1 43204U 18015K   23066.21586981  .00056372  00000+0  13382-2 0  9996
2 43204  97.5619 219.0092 0012750 196.4431 288.3485 15.41428700283168
GAOFEN 1-02             
1 43259U 18031A   23066.18257707  .00002312  00000+0  33830-3 0  9997
2 43259  97.8721 141.7374 0002393 215.6952 144.4105 14.76590505265917
GAOFEN 1-03             
1 43260U 18031B   23066.02542561  .00002270  00000+0  33223-3 0  9996
2 43260  97.8721 141.5372 0004288 319.9675  40.1219 14.76590136265884
GAOFEN 1-04             
1 43262U 18031D   23066.20411146  .00002320  00000+0  33961-3 0  9997
2 43262  97.8725 141.7706 0003267 261.0577  99.0286 14.76572839265907
SENTINEL-3B             
1 43437U 18039A   23066.16061540  .00000396  00000+0  18165-3 0  9993
2 43437  98.6235 134.7054 0001078 126.7171 233.4109 14.26744792253290
GAOFEN 5-01             
1 43461U 18043A   23066.25072831  .00001486  00000+0  33162-3 0  9995
2 43461  98.3003  10.7056 0001819 154.3994 205.7295 14.58271858256952
GAOFEN 6                
1 43484U 18048A   23066.03501572  .00002077  00000+0  30423-3 0  9994
2 43484  97.9050 146.3224 0009942  80.6714 279.5630 14.76624430256582
GAOFEN 11-1             
1 43585U 18063A   23066.06445813  .00013841  00000+0  57666-3 0  9990
2 43585  97.2898 140.3600 0009209 331.5829 146.8327 15.23792730256378
AEOLUS                  
1 43600U 18066A   23066.28076087  .00180009  13043-4  69965-3 0  9990
2 43600  96.7266  73.1623 0013105 108.2967 251.9733 15.87001681262801
ICESAT-2                
1 43613U 18070A   23065.89214335  .00028513  00000+0  10307-2 0  9995
2 43613  92.0039 328.8886 0007450  60.7394 299.4599 15.28331750249456
HYSIS                   
1 43719U 18096A   23066.12828564  .00002834  00000+0  39342-3 0  9991
2 43719  97.9246 133.8019 0002538  71.6787 288.4752 14.78683023230375
KAZSTSAT                
1 43783U 18099AB  23066.14779777  .00002691  00000+0  25358-3 0  9991
2 43783  97.5942 128.5550 0009114 108.3590 251.8623 14.94593381232034
SAUDISAT 5A             
1 43831U 18102A   23066.20039808  .00007938  00000+0  48076-3 0  9992
2 43831  97.4663 138.2079 0013160   1.5986  56.7711 15.10790595233823
SAUDISAT 5B             
1 43833U 18102C   23066.21126079  .00008426  00000+0  50303-3 0  9991
2 43833  97.4692 139.4164 0014157   6.6497  53.7220 15.11279019233887
GAOFEN 10R              
1 44622U 19066A   23066.17310704  .00003510  00000+0  45675-3 0  9998
2 44622  97.9182   6.7690 0001749 210.3133 149.7987 14.81274609184895
CARTOSAT-3              
1 44804U 19081A   23066.08816039  .00007983  00000+0  37998-3 0  9996
2 44804  97.3615 126.7366 0011438  19.7148   2.8854 15.19361967181512
GAOFEN 12-1             
1 44819U 19082A   23066.20664607  .00001146  00000+0  15639-3 0  9992
2 44819  97.8483  86.0061 0001565  83.1189 277.0206 14.80494435176814
CSG-1                   
1 44873U 19092A   23066.14461773 -.00001542  00000+0 -18733-3 0  9995
2 44873  97.8911 251.0925 0001250  78.4116 281.7328 14.82133294174013
NUSAT-7 (SOPHIE)        
1 45017U 20003B   23066.12915571  .00051746  00000+0  10927-2 0  9993
2 45017  97.1766 128.1588 0010821 132.6083 311.3514 15.44964600175610
NUSAT-8 (MARIE)         
1 45018U 20003C   23066.13735422  .00070782  00000+0  12248-2 0  9999
2 45018  97.1895 131.8036 0009151 132.1214 258.3605 15.50654215175759
NUSAT-6 (HYPATIA)       
1 46272U 20061A   23065.94247634  .00026974  00000+0  91217-3 0  9995
2 46272  97.2967 136.6503 0005703 214.1563 145.9347 15.30584332139284
NEMO-HD                 
1 46277U 20061F   23066.22573954  .00008101  00000+0  38437-3 0  9996
2 46277  97.3585 135.4111 0001459  29.6531  55.9015 15.19522173138739
NUSAT-12 (DOROTHY)      
1 46827U 20079A   23066.14968831  .00072145  00000+0  12509-2 0  9999
2 46827  97.1610 137.2040 0006160  84.4814 305.9431 15.50617348130595
NUSAT-9 (ALICE)         
1 46828U 20079B   23066.16631681  .00077811  00000+0  12917-2 0  9990
2 46828  97.1487 136.6899 0003570 127.6877 260.9139 15.51834941130657
NUSAT-11 (CORA)         
1 46829U 20079C   23066.29891481  .00076983  00000+0  12804-2 0  9995
2 46829  97.1546 137.3164 0004759  93.3380 339.3353 15.51778927130666
NUSAT-15 (KATHERINE)    
1 46830U 20079D   23066.31050354  .00075562  00000+0  12700-2 0  9993
2 46830  97.1693 138.9680 0002697  72.6970 352.6077 15.51498390130670
NUSAT-14 (HEDY)         
1 46831U 20079E   23066.37297634  .00038081  00000+0  61405-3 0  9996
2 46831  97.1642 139.0986 0005469  65.3227   2.6254 15.52812804130715
NUSAT-10 (CAROLINE)     
1 46832U 20079F   23066.23355771  .00066473  00000+0  11760-2 0  9993
2 46832  97.1666 138.1366 0005539  95.2585 349.3020 15.50072269130635
NUSAT-13 (EMMY)         
1 46833U 20079G   23066.14370390  .00063857  00000+0  11488-2 0  9998
2 46833  97.1672 137.9230 0005883  93.4798 351.1719 15.49604330130610
NUSAT-17 (MARY)         
1 46835U 20079J   23066.26126468  .00067190  00000+0  12029-2 0  9994
2 46835  97.1662 137.7475 0006528 101.3790 341.3556 15.49724578130615
NUSAT-18 (VERA)         
1 46836U 20079K   23066.26425712  .00071133  00000+0  12267-2 0  9995
2 46836  97.1674 138.4324 0006698 106.1468 336.0151 15.50770377130659
NUSAT-16 (LISE)         
1 46840U 20079P   23066.26736711  .00078259  00000+0  13224-2 0  9994
2 46840  97.1723 138.7457 0004008 109.5654 332.6367 15.51332459130653
SENTINEL-6              
1 46984U 20086A   23066.08835861 -.00000061  00000+0  00000+0 0  9999
2 46984  66.0439 103.5234 0007989 265.6646  94.3467 12.80929616107002
GAOFEN 12-2             
1 48079U 21026A   23066.24292069  .00001332  00000+0  18089-3 0  9997
2 48079  97.9165  57.9363 0001485  87.8396 272.2993 14.80470089104504
PLEIADES NEO 3          
1 48268U 21034A   23066.15964035 -.00000504  00000+0 -57451-4 0  9994
2 48268  97.8925 142.1157 0000953 122.1197 238.0129 14.81671526100255
NUSAT-19 (ROSALIND)     
1 48905U 21059AC  23066.31395086  .00024993  00000+0  10133-2 0  9991
2 48905  97.5347 200.8592 0009161 232.1655 158.0463 15.24589633 94039
NUSAT-22 (SOFYA)        
1 48919U 21059AS  23066.14336938  .00055854  00000+0  13109-2 0  9994
2 48919  97.3803 203.2475 0011676 179.7180 285.3685 15.41788307 94868
NUSAT-21 (ELISA)        
1 48920U 21059AT  23066.23832271  .00068841  00000+0  13577-2 0  9996
2 48920  97.3744 203.9200 0011772 186.4262 292.5858 15.46878761 94962
NUSAT-20 (GRACE)        
1 48921U 21059AU  23066.19682991  .00062722  00000+0  13332-2 0  9995
2 48921  97.3871 204.1607 0013970 202.9607 279.3127 15.44680751 94912
PLEIADES NEO 4          
1 49070U 21073E   23066.19339365  .00000023  00000+0  95355-5 0  9995
2 49070  97.8932 142.1459 0000979  90.5157 269.6187 14.81673729 83972
LANDSAT 9               
1 49260U 21088A   23066.18850948  .00001229  00000+0  28263-3 0  9997
2 49260  98.1955 137.7759 0001214  89.8586 270.2751 14.57132816 76534
CSG-2                   
1 51444U 22008A   23066.11084072 -.00001540  00000+0 -18705-3 0  9995
2 51444  97.8906 251.0537 0001532  87.5645 272.5850 14.82134189 59125
INS-2TD                 
1 51658U 22013C   23066.26825580  .00022351  00000+0  10685-2 0  9990
2 51658  97.5523  78.2546 0010262  17.5122 342.6464 15.18971848 58496
GAOFEN 12-3             
1 52912U 22069A   23066.23700120  .00003524  00000+0  46183-3 0  9998
2 52912  97.9651 317.1297 0002935  62.8398 297.3131 14.80976637 37369
SWOT                    
1 54754U 22173A   23065.36922758  .00136711  00000+0  76186-1 0  9995
2 54754  77.5998 216.4179 0000983 118.1034 241.1156 14.09948487 11253
SARSAT 7 (NOAA 15)      
1 25338U 98030A   23066.22688159  .00000462  00000+0  21061-3 0  9993
2 25338  98.6186  96.9710 0009374 248.6274 111.3906 14.26259659290729
GPS BIIR-08             
1 27663U 03005A   23065.77317927  .00000034  00000+0  00000+0 0  9996
2 27663  55.3465 262.6325 0132379  43.7425 134.8593  2.00576606147276
GPS BIIR-11             
1 28190U 04009A   23065.79470780 -.00000052  00000+0  00000+0 0  9997
2 28190  55.8277 323.6707 0089853 129.7215 222.6176  2.00571567138904
GPS BIIR-13             
1 28474U 04045A   23065.75499959 -.00000088  00000+0  00000+0 0  9996
2 28474  55.4209  12.9400 0201610 284.0884 249.6255  2.00562838134399
SARSAT 10 (NOAA 18)     
1 28654U 05018A   23066.16371390  .00000449  00000+0  26528-3 0  9998
2 28654  98.9180 141.0223 0013348 310.7788  49.2225 14.12879398917168
